STARLINK-5730
1 55611U 23020AU  26092.83335647  .00895227  00000+0  32047-1 0  9992
2 55611  42.9993 217.9896 0001635 272.3780 332.5642 15.25602684  5719
STARLINK-6104
1 56127U 23046AM  26092.83335647  .00100508  00000+0  38296-2 0  9997
2 56127  43.0005  13.2298 0001567 240.6563  63.2224 15.25651411  5763
STARLINK-6327
1 56522U 23065V   26092.24294827  .00008190  00000+0  32532-3 0  9998
2 56522  43.0007  79.3086 0001163 273.5394  86.5324 15.25626685160206
